     2.11           NAVIGATION DATA     GPS(GPS)            RINEX VERSION / TYPE
cnvtToRINEX 3.09.11 convertToRINEX OPR  29-May-19 08:34 UTC PGM / RUN BY / DATE 
----------------------------------------------------------- COMMENT             
    0.6519D-08  0.2235D-07 -0.5960D-07 -0.1192D-06          ION ALPHA           
    0.8602D+05  0.9830D+05 -0.6554D+05 -0.5243D+06          ION BETA            
   -0.931322574615D-09-0.888178419700D-15   319488     2055 DELTA-UTC: A0,A1,T,W
    18                                                      LEAP SECONDS        
                                                            END OF HEADER       
12 19 05 27 12 00  0.0 0.238696113229D-03-0.352429196937D-11 0.000000000000D+00
    0.190000000000D+02-0.968750000000D+00 0.402588197986D-08 0.190569399375D+01
   -0.346451997757D-06 0.764089543372D-02 0.722147524357D-05 0.515364171219D+04
    0.129600000000D+06-0.106170773506D-06 0.127196952517D+01-0.122934579849D-06
    0.982648319041D+00 0.251593750000D+03 0.108596147511D+01-0.778425281680D-08
   -0.352871841386D-09 0.100000000000D+01 0.205500000000D+04 0.000000000000D+00
    0.200000000000D+01 0.000000000000D+00-0.121071934700D-07 0.190000000000D+02
    0.122418000000D+06 0.400000000000D+01 0.000000000000D+00 0.000000000000D+00
32 19 05 27 12 00  0.0-0.694552436471D-04 0.165982783074D-10 0.000000000000D+00
    0.240000000000D+02 0.110312500000D+02 0.466305137766D-08-0.192100094449D+00
    0.629574060440D-06 0.308938231319D-02 0.995583832264D-05 0.515359248734D+04
    0.129600000000D+06 0.745058059692D-08-0.897068022484D+00 0.670552253723D-07
    0.956649515949D+00 0.187218750000D+03-0.249797660737D+01-0.802211986778D-08
    0.236795577772D-09 0.100000000000D+01 0.205500000000D+04 0.000000000000D+00
    0.200000000000D+01 0.000000000000D+00 0.465661287308D-09 0.240000000000D+02
    0.122418000000D+06 0.400000000000D+01 0.000000000000D+00 0.000000000000D+00
 2 19 05 27 12 00  0.0-0.223108101636D-03-0.909494701773D-11 0.000000000000D+00
    0.260000000000D+02-0.331250000000D+01 0.449875881993D-08-0.272355473064D+01
   -0.651925802231D-07 0.188839018811D-01 0.488199293613D-05 0.515371774483D+04
    0.129600000000D+06 0.244006514549D-06-0.304708942133D+01-0.558793544769D-08
    0.955023854085D+00 0.280906250000D+03-0.173947510133D+01-0.787711382769D-08
    0.247510309798D-09 0.100000000000D+01 0.205500000000D+04 0.000000000000D+00
    0.200000000000D+01 0.000000000000D+00-0.204890966415D-07 0.260000000000D+02
    0.122448000000D+06 0.400000000000D+01 0.000000000000D+00 0.000000000000D+00
 6 19 05 27 12 00  0.0 0.194445718080D-03-0.102318153949D-10 0.000000000000D+00
    0.440000000000D+02-0.418750000000D+01 0.420588947789D-08-0.281493152995D+01
   -0.223517417908D-06 0.153895386029D-02 0.523775815964D-05 0.515358829689D+04
    0.129600000000D+06 0.577419996262D-07-0.298665621696D+01-0.204890966415D-07
    0.975560315637D+00 0.288718750000D+03-0.107812917556D+01-0.799461872225D-08
    0.151434879299D-09 0.100000000000D+01 0.205500000000D+04 0.000000000000D+00
    0.200000000000D+01 0.000000000000D+00 0.419095158577D-08 0.440000000000D+02
    0.122688000000D+06 0.400000000000D+01 0.000000000000D+00 0.000000000000D+00
